[
    {
        "CCSDS_OMM_VERS": "3.0",
        "COMMENT": "GENERATED VIA SPACE-TRACK.ORG API",
        "CREATION_DATE": "2025-03-02T09:28:08",
        "ORIGINATOR": "18 SPCS",
        "OBJECT_NAME": "BEIDOU 3M12",
        "OBJECT_ID": "2018-067B",
        "CENTER_NAME": "EARTH",
        "REF_FRAME": "TEME",
        "TIME_SYSTEM": "UTC",
        "MEAN_ELEMENT_THEORY": "SGP4",
        "EPOCH": "2025-03-01T12:27:17.317152",
        "MEAN_MOTION": "1.86227159",
        "ECCENTRICITY": "0.00046630",
        "INCLINATION": "54.1986",
        "RA_OF_ASC_NODE": "197.0335",
        "ARG_OF_PERICENTER": "31.0104",
        "MEAN_ANOMALY": "328.9696",
        "EPHEMERIS_TYPE": "0",
        "CLASSIFICATION_TYPE": "U",
        "NORAD_CAT_ID": "43603",
        "ELEMENT_SET_NO": "999",
        "REV_AT_EPOCH": "4434",
        "BSTAR": "0.00000000000000",
        "MEAN_MOTION_DOT": "0.00000038",
        "MEAN_MOTION_DDOT": "0.0000000000000",
        "SEMIMAJOR_AXIS": "27906.572",
        "PERIOD": "773.249",
        "APOAPSIS": "21541.450",
        "PERIAPSIS": "21515.424",
        "OBJECT_TYPE": "PAYLOAD",
        "RCS_SIZE": "LARGE",
        "COUNTRY_CODE": "PRC",
        "LAUNCH_DATE": "2018-08-24",
        "SITE": "XSC",
        "DECAY_DATE": null,
        "FILE": "4656805",
        "GP_ID": "282049598",
        "TLE_LINE0": "0 BEIDOU 3M12",
        "TLE_LINE1": "1 43603U 18067B   25060.51895043  .00000038  00000-0  00000-0 0  9997",
        "TLE_LINE2": "2 43603  54.1986 197.0335 0004663  31.0104 328.9696  1.86227159 44346"
    }
]